[Satellite]
VERSION=1.1
NAME=GSAT-16
NICKNAME=GSAT-16
TLE1=1 40332U 14078A   17186.06044490  .00000079  00000-0  00000-0 0  9998
TLE2=2 40332   0.0223 277.1689 0007706 168.0826 274.8293  1.00274487  9481
